*******************************************************************************
 Revised: Sep 12, 1996              Mercury                             199 / 1

 GEOPHYSICAL DATA (updated 2008-Feb-07):
  Mean radius (km)      =  2440(+-1)     Density (g cm^-3)     =  5.427
  Mass (10^23 kg )      =     3.302      Flattening, f         =  
  Volume (x10^10 km^3)  =     6.085      Semi-major axis       = 
  Sidereal rot. period  =    58.6462 d   Rot. Rate (x10^5 s)   =  0.124001
  Mean solar day        =   175.9421 d   Polar gravity ms^-2   =
  Mom. of Inertia       =     0.33       Equ. gravity  ms^-2   =  3.701     
  Core radius (km)      = ~1600          Potential Love # k2   =

  GM (km^3 s^-2)        = 22032.09       Equatorial Radius, Re =    2440 km
  GM 1-sigma (km^3 s^-2)=   +-0.91       Mass ratio (sun/plnt) = 6023600
 
  Atmos. pressure (bar) =                Max. angular diam.    = 11.0"   
  Mean Temperature (K)  =                Visual mag. V(1,0)    = -0.42 
  Geometric albedo      =   0.106        Obliquity to orbit[1] = 2.11' +/- 0.1'  
  Sidereal orb. per.    =   0.2408467 y  Orbit vel.  km/s      = 47.8725
  Sidereal orb. per.    =  87.969257  d  Escape vel. km/s      =  4.435
  Hill's sphere rad. Rp =  94.4          Planetary Solar Const = 9936.9 (Wm^2)

[1] Margot et al., Science 316, 2007
*******************************************************************************
 
 
*******************************************************************************
Ephemeris / WWW_USER Sun Mar 31 11:27:59 2013 Pasadena, USA      / Horizons    
*******************************************************************************
Target body name: Mercury (199)                   {source: DE405}
Center body name: Sun (10)                        {source: DE405}
Center-site name: BODY CENTER
*******************************************************************************
Start time      : A.D. 2013-Mar-31 00:00:00.0000 CT 
Stop  time      : A.D. 2013-Apr-10 00:00:00.0000 CT 
Step-size       : 1440 minutes
*******************************************************************************
Center geodetic : 0.00000000,0.00000000,0.0000000 {E-lon(deg),Lat(deg),Alt(km)}
Center cylindric: 0.00000000,0.00000000,0.0000000 {E-lon(deg),Dxy(km),Dz(km)}
Center radii    : 696000.0 x 696000.0 x 696000.0 k{Equator, meridian, pole}    
System GM       : 2.9591225741106545E-04 AU^3/d^2
Output units    : AU-D, deg, Julian day number (Tp)                            
Output format   : 10
Reference frame : ICRF/J2000.0                                                 
Output type     : GEOMETRIC osculating elements
Coordinate systm: Ecliptic and Mean Equinox of Reference Epoch                 
*******************************************************************************
JDCT ,   , EC, QR, IN, OM, W, Tp, N, MA, TA, A, AD, PR
*******************************************************************************
$$SOE
2456382.500000000, A.D. 2013-Mar-31 00:00:00.0000,  2.056473612244954E-01,  3.074920775415013E-01,  7.004205219529399E+00,  4.831457742968309E+01,  2.916391943757956E+01,  2.456340602666385E+06,  4.092354313917951E+00,  1.714587339614118E+02,  1.742445913608498E+02,  3.870976975861762E-01,  4.667033176308510E-01,  8.796892262618925E+01,
2456383.500000000, A.D. 2013-Apr-01 00:00:00.0000,  2.056474267984442E-01,  3.074920369775435E-01,  7.004204897401041E+00,  4.831457620888617E+01,  2.916393436232048E+01,  2.456340602674689E+06,  4.092354616968296E+00,  1.755510672923360E+02,  1.770040508329980E+02,  3.870976784757286E-01,  4.667033199739136E-01,  8.796891611184361E+01,
2456384.500000000, A.D. 2013-Apr-02 00:00:00.0000,  2.056474948175375E-01,  3.074919938794798E-01,  7.004204563940972E+00,  4.831457478181746E+01,  2.916395025958413E+01,  2.456340602683568E+06,  4.092354951712270E+00,  1.796434002660453E+02,  1.797599190032403E+02,  3.870976573666739E-01,  4.667033208538680E-01,  8.796890891621545E+01,
2456385.500000000, A.D. 2013-Apr-03 00:00:00.0000,  2.056475652748509E-01,  3.074919482199430E-01,  7.004204223021336E+00,  4.831457314734499E+01,  2.916396716946536E+01,  2.456428571594070E+06,  4.092355318749751E+00,  1.837357329193972E+02,  1.825154987007869E+02,  3.870976342211843E-01,  4.667033202224255E-01,  8.796890102641014E+01,
2456386.500000000, A.D. 2013-Apr-04 00:00:00.0000,  2.056476381039036E-01,  3.074919000130712E-01,  7.004203878410501E+00,  4.831457130741800E+01,  2.916398512865996E+01,  2.456428571595570E+06,  4.092355718312259E+00,  1.878280652915993E+02,  1.852740915271171E+02,  3.870976090246611E-01,  4.667033180362508E-01,  8.796889243745133E+01,
2456387.500000000, A.D. 2013-Apr-05 00:00:00.0000,  2.056477131775738E-01,  3.074918493157012E-01,  7.004203533746180E+00,  4.831456926690561E+01,  2.916400416817400E+01,  2.456428571596998E+06,  4.092356150247540E+00,  1.919203974256623E+02,  1.880390119693438E+02,  3.870975817867062E-01,  4.667033142577112E-01,  8.796888315261224E+01,
2456388.500000000, A.D. 2013-Apr-06 00:00:00.0000,  2.056477903084441E-01,  3.074917962278983E-01,  7.004203192513607E+00,  4.831456703345270E+01,  2.916402431073403E+01,  2.456428571598371E+06,  4.092356614006312E+00,  1.960127293702043E+02,  1.908136015650046E+02,  3.870975525419590E-01,  4.667033088560197E-01,  8.796887318370068E+01,
2456389.500000000, A.D. 2013-Apr-07 00:00:00.0000,  2.056478692502676E-01,  3.074917408930524E-01,  7.004202858023499E+00,  4.831456461733097E+01,  2.916404556821688E+01,  2.456428571599710E+06,  4.092357108628997E+00,  2.001050611811860E+02,  1.936012431718376E+02,  3.870975213509315E-01,  4.667033018088105E-01,  8.796886255134406E+01,
2456390.500000000, A.D. 2013-Apr-08 00:00:00.0000,  2.056479497006898E-01,  3.074916834974704E-01,  7.004202533391141E+00,  4.831456203129123E+01,  2.916406793903769E+01,  2.456428571601033E+06,  4.092357632732853E+00,  2.041973929236747E+02,  1.964053753917607E+02,  3.870974883008210E-01,  4.667032931041716E-01,  8.796885128526610E+01,
2456391.500000000, A.D. 2013-Apr-09 00:00:00.0000,  2.056480313052202E-01,  3.074916242694865E-01,  7.004202221516147E+00,  4.831455929041592E+01,  2.916409140553470E+01,  2.456428571602359E+06,  4.092358184499016E+00,  2.082897246735970E+02,  1.992295071905841E+02,  3.870974535063266E-01,  4.667032827431667E-01,  8.796883942456542E+01,
2456392.500000000, A.D. 2013-Apr-10 00:00:00.0000,  2.056481136624867E-01,  3.074915634780920E-01,  7.004201925062554E+00,  4.831455641196987E+01,  2.916411593139021E+01,  2.456428571603708E+06,  4.092358761659268E+00,  2.123820565194395E+02,  2.020772327439176E+02,  3.870974171104839E-01,  4.667032707428757E-01,  8.796882701799980E+01,
$$EOE
*******************************************************************************
Coordinate system description:

  Ecliptic and Mean Equinox of Reference Epoch

    Reference epoch: J2000.0
    xy-plane: plane of the Earth's orbit at the reference epoch
    x-axis  : out along ascending node of instantaneous plane of the Earth's
              orbit and the Earth's mean equator at the reference epoch
    z-axis  : perpendicular to the xy-plane in the directional (+ or -) sense
              of Earth's north pole at the reference epoch.

Symbol meaning [1 AU=149597870.691 km, 1 day=86400.0 s]:

    JDCT     Epoch Julian Date, Coordinate Time
      EC     Eccentricity, e                                                   
      QR     Periapsis distance, q (AU)                                        
      IN     Inclination w.r.t xy-plane, i (degrees)                           
      OM     Longitude of Ascending Node, OMEGA, (degrees)                     
      W      Argument of Perifocus, w (degrees)                                
      Tp     Time of periapsis (Julian day number)                             
      N      Mean motion, n (degrees/day)                                      
      MA     Mean anomaly, M (degrees)                                         
      TA     True anomaly, nu (degrees)                                        
      A      Semi-major axis, a (AU)                                           
      AD     Apoapsis distance (AU)                                            
      PR     Sidereal orbit period (day)                                       

Geometric states/elements have no aberration corrections applied.

 Computations by ...
     Solar System Dynamics Group, Horizons On-Line Ephemeris System
     4800 Oak Grove Drive, Jet Propulsion Laboratory
     Pasadena, CA  91109   USA
     Information: http://ssd.jpl.nasa.gov/
     Connect    : telnet://ssd.jpl.nasa.gov:6775  (via browser)
                  telnet ssd.jpl.nasa.gov 6775    (via command-line)
     Author     : Jon.Giorgini@jpl.nasa.gov
*******************************************************************************

